[{"OBJECT_NAME":"STARLINK-31908","OBJECT_ID":"2024-100S","EPOCH":"2026-03-09T12:40:43.455936","MEAN_MOTION":15.27569115,"ECCENTRICITY":0.00013484,"INCLINATION":43.0036,"RA_OF_ASC_NODE":119.2585,"ARG_OF_PERICENTER":225.6709,"MEAN_ANOMALY":134.4033,"EPHEMERIS_TYPE":0,"CLASSIFICATION_TYPE":"U","NORAD_CAT_ID":59901,"ELEMENT_SET_NO":999,"REV_AT_EPOCH":10120,"BSTAR":3.4207979e-5,"MEAN_MOTION_DOT":6.79e-6,"MEAN_MOTION_DDOT":0},{"OBJECT_NAME":"FLOCK 4G-8","OBJECT_ID":"2025-009E","EPOCH":"2026-03-09T17:22:17.546016","MEAN_MOTION":15.27623414,"ECCENTRICITY":0.00030503,"INCLINATION":97.4045,"RA_OF_ASC_NODE":151.2834,"ARG_OF_PERICENTER":315.2538,"MEAN_ANOMALY":44.8455,"EPHEMERIS_TYPE":0,"CLASSIFICATION_TYPE":"U","NORAD_CAT_ID":62613,"ELEMENT_SET_NO":999,"REV_AT_EPOCH":6372,"BSTAR":0.0005043806,"MEAN_MOTION_DOT":0.00013559,"MEAN_MOTION_DDOT":0}]
